<?xml version="1.0" encoding="UTF-8"?>
<kml xmlns="http://www.opengis.net/kml/2.2">
  <Document>
    <name>Draggable Bounding Box</name>
    <Placemark>
      <name>Bounding Box</name>
      <Style>
        <LineStyle>
          <color>ff0000ff</color>
          <width>2</width>
        </LineStyle>
        <PolyStyle>
          <color>4dff0000</color>
        </PolyStyle>
      </Style>
      <Polygon>
        <altitudeMode>relativeToGround</altitudeMode>
        <outerBoundaryIs>
          <LinearRing>
            <coordinates>
              75.4584838660398,58.626063140035406,0
              76.35679915015932,58.626063140035406,0
              76.35679915015932,59.09062379797301,0
              75.4584838660398,59.09062379797301,0
              75.4584838660398,58.626063140035406,0
            </coordinates>
          </LinearRing>
        </outerBoundaryIs>
      </Polygon>
    </Placemark>
  </Document>
</kml>
